{
    "links": {
        "self": "http://www.neowsapp.com/rest/v1/neo/3773661?api_key=iIulBulltgU6a56xZRHN4H3l9WmuAYTsLGpBGhQ2"
    },
    "id": "3773661",
    "neo_reference_id": "3773661",
    "name": "(2017 FT128)",
    "designation": "2017 FT128",
    "nasa_jpl_url": "http://ssd.jpl.nasa.gov/sbdb.cgi?sstr=3773661",
    "absolute_magnitude_h": 24.2,
    "estimated_diameter": {
        "kilometers": {
            "estimated_diameter_min": 0.0384197891,
            "estimated_diameter_max": 0.0859092601
        },
        "meters": {
            "estimated_diameter_min": 38.4197891064,
            "estimated_diameter_max": 85.9092601232
        },
        "miles": {
            "estimated_diameter_min": 0.0238729428,
            "estimated_diameter_max": 0.0533815229
        },
        "feet": {
            "estimated_diameter_min": 126.0491808919,
            "estimated_diameter_max": 281.8545369825
        }
    },
    "is_potentially_hazardous_asteroid": false,
    "close_approach_data": [
        {
            "close_approach_date": "2017-03-20",
            "close_approach_date_full": "2017-Mar-20 16:11",
            "epoch_date_close_approach": 1490026260000,
            "relative_velocity": {
                "kilometers_per_second": "12.2369146459",
                "kilometers_per_hour": "44052.8927253966",
                "miles_per_hour": "27372.754371511"
            },
            "miss_distance": {
                "astronomical": "0.0363479627",
                "lunar": "14.1393574903",
                "kilometers": "5437577.798759449",
                "miles": "3378754.1692364362"
            },
            "orbiting_body": "Earth"
        }
    ],
    "orbital_data": {
        "orbit_id": "5",
        "orbit_determination_date": "2017-04-20 12:26:53",
        "first_observation_date": "2017-03-30",
        "last_observation_date": "2017-04-19",
        "data_arc_in_days": 20,
        "observations_used": 47,
        "orbit_uncertainty": "8",
        "minimum_orbit_intersection": ".0362333",
        "jupiter_tisserand_invariant": "3.539",
        "epoch_osculation": "2457846.5",
        "eccentricity": ".5828575385797451",
        "semi_major_axis": "2.067590431362096",
        "inclination": "4.035919802149046",
        "ascending_node_longitude": "149.1984583461816",
        "orbital_period": "1085.913412541099",
        "perihelion_distance": ".8624797617473512",
        "perihelion_argument": "341.3375787038646",
        "aphelion_distance": "3.27270110097684",
        "perihelion_time": "2457798.108577936355",
        "mean_anomaly": "16.04263446948893",
        "mean_motion": ".3315181448561165",
        "equinox": "J2000",
        "orbit_class": {
            "orbit_class_type": "APO",
            "orbit_class_description": "Near-Earth asteroid orbits which cross the Earth’s orbit similar to that of 1862 Apollo",
            "orbit_class_range": "a (semi-major axis) > 1.0 AU; q (perihelion) < 1.017 AU"
        }
    },
    "is_sentry_object": false
}